{"type": "FeatureCollection", "features": [ {"type": "Feature", "properties": {"norad_id": 40701, "name": "GAOFEN-8", "group": "resource", "lat": 34.522531198497596, "lon": 170.08961766660704, "alt_km": 444.22781710495383, "timestamp": "2025-12-22T18:58:53.077945+00:00", "meta": {"OBJECT_NAME": "GAOFEN-8", "OBJECT_ID": "2015-030A", "EPOCH": "2025-12-22T06:20:44.643840", "MEAN_MOTION": 15.38862403, "ECCENTRICITY": 0.00117722, "INCLINATION": 97.6904, "RA_OF_ASC_NODE": 174.8708, "ARG_OF_PERICENTER": 105.4535, "MEAN_ANOMALY": 254.801, "EPHEMERIS_TYPE": 0, "CLASSIFICATION_TYPE": "U", "NORAD_CAT_ID": 40701, "ELEMENT_SET_NO": 999, "REV_AT_EPOCH": 58417, "BSTAR": 0.0011571934, "MEAN_MOTION_DOT": 0.00044704, "MEAN_MOTION_DDOT": 0}, "tle": {"line1": "1 40701U 15030A   25356.26440560  .00044704  00000+0  11572-2 0  9995", "line2": "2 40701  97.6904 174.8708 0011772 105.4535 254.8010 15.38862403584170"}}, "geometry": {"type": "Point", "coordinates": [170.08961766660704, 34.522531198497596]}}, {"type": "Feature", "properties": {"norad_id": 40718, "name": "CARBONITE 1 (CBNT-1)", "group": "resource", "lat": 73.25100963047333, "lon": 23.879050589984505, "alt_km": 605.909916818071, "timestamp": "2025-12-22T18:58:53.077955+00:00", "meta": {"OBJECT_NAME": "CARBONITE 1 (CBNT-1)", "OBJECT_ID": "2015-032D", "EPOCH": "2025-12-22T05:33:11.536128", "MEAN_MOTION": 14.82781986, "ECCENTRICITY": 0.00150437, "INCLINATION": 97.6396, "RA_OF_ASC_NODE": 176.857, "ARG_OF_PERICENTER": 150.3732, "MEAN_ANOMALY": 209.8337, "EPHEMERIS_TYPE": 0, "CLASSIFICATION_TYPE": "U", "NORAD_CAT_ID": 40718, "ELEMENT_SET_NO": 999, "REV_AT_EPOCH": 56311, "BSTAR": 0.00013948175, "MEAN_MOTION_DOT": 1.079e-05, "MEAN_MOTION_DDOT": 0}, "tle": {"line1": "1 40718U 15032D   25356.23138352  .00001079  00000+0  13948-3 0  9993", "line2": "2 40718  97.6396 176.8570 0015043 150.3732 209.8337 14.82781986563112"}}, "geometry": {"type": "Point", "coordinates": [23.879050589984505, 73.25100963047333]}}, {"type": "Feature", "properties": {"norad_id": 40878, "name": "YAOGAN-27", "group": "resource", "lat": -76.47844093374387, "lon": 118.12197029195951, "alt_km": 1201.3289245868, "timestamp": "2025-12-22T18:58:53.077965+00:00", "meta": {"OBJECT_NAME": "YAOGAN-27", "OBJECT_ID": "2015-040A", "EPOCH": "2025-12-22T06:42:42.942816", "MEAN_MOTION": 13.16059918, "ECCENTRICITY": 0.00075719, "INCLINATION": 100.1007, "RA_OF_ASC_NODE": 345.468, "ARG_OF_PERICENTER": 263.204, "MEAN_ANOMALY": 96.8213, "EPHEMERIS_TYPE": 0, "CLASSIFICATION_TYPE": "U", "NORAD_CAT_ID": 40878, "ELEMENT_SET_NO": 999, "REV_AT_EPOCH": 49439, "BSTAR": -8.2397577e-05, "MEAN_MOTION_DOT": -7.4e-07, "MEAN_MOTION_DDOT": 0}, "tle": {"line1": "1 40878U 15040A   25356.27966369 -.00000074  00000+0 -82398-4 0  9992", "line2": "2 40878 100.1007 345.4680 0007571 263.2040  96.8213 13.16059918494396"}}, "geometry": {"type": "Point", "coordinates": [118.12197029195951, -76.47844093374387]}}, {"type": "Feature", "properties": {"norad_id": 40894, "name": "GAOFEN-9 01", "group": "resource", "lat": 13.67371670517022, "lon": 33.43714001717141, "alt_km": 603.7908827964984, "timestamp": "2025-12-22T18:58:53.077975+00:00", "meta": {"OBJECT_NAME": "GAOFEN-9 01", "OBJECT_ID": "2015-047A", "EPOCH": "2025-12-22T05:57:36.709056", "MEAN_MOTION": 14.82444832, "ECCENTRICITY": 0.00276169, "INCLINATION": 97.653, "RA_OF_ASC_NODE": 34.7927, "ARG_OF_PERICENTER": 3.645, "MEAN_ANOMALY": 356.496, "EPHEMERIS_TYPE": 0, "CLASSIFICATION_TYPE": "U", "NORAD_CAT_ID": 40894, "ELEMENT_SET_NO": 999, "REV_AT_EPOCH": 55397, "BSTAR": 0.00013895473, "MEAN_MOTION_DOT": 1.07e-05, "MEAN_MOTION_DDOT": 0}, "tle": {"line1": "1 40894U 15047A   25356.24834154  .00001070  00000+0  13895-3 0  9990", "line2": "2 40894  97.6530  34.7927 0027616   3.6450 356.4960 14.82444832553971"}}, "geometry": {"type": "Point", "coordinates": [33.43714001717141, 13.67371670517022]}}, {"type": "Feature", "properties": {"norad_id": 41026, "name": "YAOGAN-28", "group": "resource", "lat": -61.648806064845004, "lon": -59.40677661397965, "alt_km": 506.88839046028716, "timestamp": "2025-12-22T18:58:53.077985+00:00", "meta": {"OBJECT_NAME": "YAOGAN-28", "OBJECT_ID": "2015-064A", "EPOCH": "2025-12-22T06:53:41.429184", "MEAN_MOTION": 15.24496464, "ECCENTRICITY": 0.00126499, "INCLINATION": 97.2815, "RA_OF_ASC_NODE": 133.8111, "ARG_OF_PERICENTER": 95.7476, "MEAN_ANOMALY": 264.5205, "EPHEMERIS_TYPE": 0, "CLASSIFICATION_TYPE": "U", "NORAD_CAT_ID": 41026, "ELEMENT_SET_NO": 999, "REV_AT_EPOCH": 56370, "BSTAR": 0.00034301727, "MEAN_MOTION_DOT": 8.383e-05, "MEAN_MOTION_DDOT": 0}, "tle": {"line1": "1 41026U 15064A   25356.28728506  .00008383  00000+0  34302-3 0  9994", "line2": "2 41026  97.2815 133.8111 0012649  95.7476 264.5205 15.24496464563705"}}, "geometry": {"type": "Point", "coordinates": [-59.40677661397965, -61.648806064845004]}}, {"type": "Feature", "properties": {"norad_id": 41038, "name": "YAOGAN-29", "group": "resource", "lat": -78.43774521215674, "lon": 63.56268186326326, "alt_km": 627.6831113468224, "timestamp": "2025-12-22T18:58:53.077996+00:00", "meta": {"OBJECT_NAME": "YAOGAN-29", "OBJECT_ID": "2015-069A", "EPOCH": "2025-12-22T06:23:37.074912", "MEAN_MOTION": 14.82890708, "ECCENTRICITY": 6.098e-05, "INCLINATION": 98.0206, "RA_OF_ASC_NODE": 19.4685, "ARG_OF_PERICENTER": 172.4418, "MEAN_ANOMALY": 187.6804, "EPHEMERIS_TYPE": 0, "CLASSIFICATION_TYPE": "U", "NORAD_CAT_ID": 41038, "ELEMENT_SET_NO": 999, "REV_AT_EPOCH": 54440, "BSTAR": -3.837311e-06, "MEAN_MOTION_DOT": -8.5e-07, "MEAN_MOTION_DDOT": 0}, "tle": {"line1": "1 41038U 15069A   25356.26640133 -.00000085  00000+0 -38373-5 0  9996", "line2": "2 41038  98.0206  19.4685 0000609 172.4418 187.6804 14.82890708544406"}}, "geometry": {"type": "Point", "coordinates": [63.56268186326326, -78.43774521215674]}}, {"type": "Feature", "properties": {"norad_id": 41167, "name": "KENT RIDGE 1", "group": "resource", "lat": -13.106969582389151, "lon": 76.0059745510257, "alt_km": 494.1794894732984, "timestamp": "2025-12-22T18:58:53.078006+00:00", "meta": {"OBJECT_NAME": "KENT RIDGE 1", "OBJECT_ID": "2015-077B", "EPOCH": "2025-12-21T18:04:45.470784", "MEAN_MOTION": 15.21699918, "ECCENTRICITY": 0.00085387, "INCLINATION": 14.9785, "RA_OF_ASC_NODE": 144.2556, "ARG_OF_PERICENTER": 258.1757, "MEAN_ANOMALY": 101.7607, "EPHEMERIS_TYPE": 0, "CLASSIFICATION_TYPE": "U", "NORAD_CAT_ID": 41167, "ELEMENT_SET_NO": 999, "REV_AT_EPOCH": 55401, "BSTAR": 0.00013439533, "MEAN_MOTION_DOT": 3.888e-05, "MEAN_MOTION_DDOT": 0}, "tle": {"line1": "1 41167U 15077B   25355.75330406  .00003888  00000+0  13440-3 0  9998", "line2": "2 41167  14.9785 144.2556 0008538 258.1757 101.7607 15.21699918554019"}}, "geometry": {"type": "Point", "coordinates": [76.0059745510257, -13.106969582389151]}}, {"type": "Feature", "properties": {"norad_id": 41194, "name": "GAOFEN-4", "group": "resource", "lat": 0.14786164022213405, "lon": 121.99938775522789, "alt_km": 35778.71648852924, "timestamp": "2025-12-22T18:58:53.078019+00:00", "meta": {"OBJECT_NAME": "GAOFEN-4", "OBJECT_ID": "2015-083A", "EPOCH": "2025-12-19T15:27:26.627616", "MEAN_MOTION": 1.00273138, "ECCENTRICITY": 0.0002945, "INCLINATION": 0.1878, "RA_OF_ASC_NODE": 81.7841, "ARG_OF_PERICENTER": 93.4275, "MEAN_ANOMALY": 250.8523, "EPHEMERIS_TYPE": 0, "CLASSIFICATION_TYPE": "U", "NORAD_CAT_ID": 41194, "ELEMENT_SET_NO": 999, "REV_AT_EPOCH": 3672, "BSTAR": 0, "MEAN_MOTION_DOT": -3.11e-06, "MEAN_MOTION_DDOT": 0}, "tle": {"line1": "1 41194U 15083A   25353.64405819 -.00000311  00000+0  00000+0 0  9995", "line2": "2 41194   0.1878  81.7841 0002945  93.4275 250.8523  1.00273138 36722"}}, "geometry": {"type": "Point", "coordinates": [121.99938775522789, 0.14786164022213405]}}, {"type": "Feature", "properties": {"norad_id": 41240, "name": "JASON-3", "group": "resource", "lat": 64.63174764132134, "lon": -112.98374869404665, "alt_km": 1309.3073226171655, "timestamp": "2025-12-22T18:58:53.078030+00:00", "meta": {"OBJECT_NAME": "JASON-3", "OBJECT_ID": "2016-002A", "EPOCH": "2025-12-22T05:25:21.531360", "MEAN_MOTION": 12.87626927, "ECCENTRICITY": 0.00072492, "INCLINATION": 66.0401, "RA_OF_ASC_NODE": 137.8804, "ARG_OF_PERICENTER": 271.3824, "MEAN_ANOMALY": 88.6364, "EPHEMERIS_TYPE": 0, "CLASSIFICATION_TYPE": "U", "NORAD_CAT_ID": 41240, "ELEMENT_SET_NO": 999, "REV_AT_EPOCH": 46446, "BSTAR": 4.5484565e-05, "MEAN_MOTION_DOT": -5.1e-07, "MEAN_MOTION_DDOT": 0}, "tle": {"line1": "1 41240U 16002A   25356.22594365 -.00000051  00000+0  45485-4 0  9993", "line2": "2 41240  66.0401 137.8804 0007249 271.3824  88.6364 12.87626927464469"}}, "geometry": {"type": "Point", "coordinates": [-112.98374869404665, 64.63174764132134]}}, {"type": "Feature", "properties": {"norad_id": 41335, "name": "SENTINEL-3A", "group": "resource", "lat": 69.20681569320516, "lon": -94.76214961013109, "alt_km": 795.3049862061926, "timestamp": "2025-12-22T18:58:53.078040+00:00", "meta": {"OBJECT_NAME": "SENTINEL-3A", "OBJECT_ID": "2016-011A", "EPOCH": "2025-12-22T06:41:26.853792", "MEAN_MOTION": 14.2673429, "ECCENTRICITY": 8.936e-05, "INCLINATION": 98.6301, "RA_OF_ASC_NODE": 61.1582, "ARG_OF_PERICENTER": 94.9993, "MEAN_ANOMALY": 265.129, "EPHEMERIS_TYPE": 0, "CLASSIFICATION_TYPE": "U", "NORAD_CAT_ID": 41335, "ELEMENT_SET_NO": 999, "REV_AT_EPOCH": 51283, "BSTAR": 7.582074e-05, "MEAN_MOTION_DOT": 1.4e-06, "MEAN_MOTION_DDOT": 0}, "tle": {"line1": "1 41335U 16011A   25356.27878303  .00000140  00000+0  75821-4 0  9995", "line2": "2 41335  98.6301  61.1582 0000893  94.9993 265.1290 14.26734290512833"}}, "geometry": {"type": "Point", "coordinates": [-94.76214961013109, 69.20681569320516]}}]}